CCSDS_OMM_VERS = 2.0
CREATION_DATE  = 
ORIGINATOR     = 

OBJECT_NAME    = STARLINK-36551
OBJECT_ID      = 2026-012A
CENTER_NAME    = EARTH
REF_FRAME      = TEME
TIME_SYSTEM    = UTC
MEAN_ELEMENT_THEORY = SGP/SGP4

EPOCH          = 2026-02-09T12:00:01.999296
MEAN_MOTION    = 15.57779522
ECCENTRICITY   = .0001281
INCLINATION    = 42.9990
RA_OF_ASC_NODE = 114.9286
ARG_OF_PERICENTER = 281.9390
MEAN_ANOMALY   = 141.7546

EPHEMERIS_TYPE = 0
CLASSIFICATION_TYPE = U
NORAD_CAT_ID   = 67493
ELEMENT_SET_NO = 999
REV_AT_EPOCH   = 453
BSTAR          = -.28155E-1
MEAN_MOTION_DOT = -.1898745E-1
MEAN_MOTION_DDOT = 0

CCSDS_OMM_VERS = 2.0
CREATION_DATE  = 
ORIGINATOR     = 

OBJECT_NAME    = STARLINK-36396
OBJECT_ID      = 2026-012B
CENTER_NAME    = EARTH
REF_FRAME      = TEME
TIME_SYSTEM    = UTC
MEAN_ELEMENT_THEORY = SGP/SGP4

EPOCH          = 2026-02-09T12:00:01.999296
MEAN_MOTION    = 15.50582515
ECCENTRICITY   = .000126
INCLINATION    = 43.0003
RA_OF_ASC_NODE = 115.6870
ARG_OF_PERICENTER = 343.0479
MEAN_ANOMALY   = 133.5214

EPHEMERIS_TYPE = 0
CLASSIFICATION_TYPE = U
NORAD_CAT_ID   = 67494
ELEMENT_SET_NO = 999
REV_AT_EPOCH   = 453
BSTAR          = -.1165E-2
MEAN_MOTION_DOT = -.68101E-3
MEAN_MOTION_DDOT = 0

CCSDS_OMM_VERS = 2.0
CREATION_DATE  = 
ORIGINATOR     = 

OBJECT_NAME    = STARLINK-36550
OBJECT_ID      = 2026-012C
CENTER_NAME    = EARTH
REF_FRAME      = TEME
TIME_SYSTEM    = UTC
MEAN_ELEMENT_THEORY = SGP/SGP4

EPOCH          = 2026-02-09T12:00:01.999296
MEAN_MOTION    = 15.50476736
ECCENTRICITY   = .0001035
INCLINATION    = 42.9994
RA_OF_ASC_NODE = 115.1805
ARG_OF_PERICENTER = 267.7962
MEAN_ANOMALY   = 53.4554

EPHEMERIS_TYPE = 0
CLASSIFICATION_TYPE = U
NORAD_CAT_ID   = 67495
ELEMENT_SET_NO = 999
REV_AT_EPOCH   = 453
BSTAR          = .15264E-2
MEAN_MOTION_DOT = .89913E-3
MEAN_MOTION_DDOT = 0

CCSDS_OMM_VERS = 2.0
CREATION_DATE  = 
ORIGINATOR     = 

OBJECT_NAME    = STARLINK-36534
OBJECT_ID      = 2026-012D
CENTER_NAME    = EARTH
REF_FRAME      = TEME
TIME_SYSTEM    = UTC
MEAN_ELEMENT_THEORY = SGP/SGP4

EPOCH          = 2026-02-09T12:00:01.999296
MEAN_MOTION    = 15.56905172
ECCENTRICITY   = .0001281
INCLINATION    = 42.9992
RA_OF_ASC_NODE = 114.9360
ARG_OF_PERICENTER = 280.4661
MEAN_ANOMALY   = 139.8666

EPHEMERIS_TYPE = 0
CLASSIFICATION_TYPE = U
NORAD_CAT_ID   = 67496
ELEMENT_SET_NO = 999
REV_AT_EPOCH   = 448
BSTAR          = -.29242E-1
MEAN_MOTION_DOT = -.1906682E-1
MEAN_MOTION_DDOT = 0

CCSDS_OMM_VERS = 2.0
CREATION_DATE  = 
ORIGINATOR     = 

OBJECT_NAME    = STARLINK-36555
OBJECT_ID      = 2026-012E
CENTER_NAME    = EARTH
REF_FRAME      = TEME
TIME_SYSTEM    = UTC
MEAN_ELEMENT_THEORY = SGP/SGP4

EPOCH          = 2026-02-09T12:00:01.999296
MEAN_MOTION    = 15.56811064
ECCENTRICITY   = .0001437
INCLINATION    = 42.9991
RA_OF_ASC_NODE = 114.9519
ARG_OF_PERICENTER = 282.9774
MEAN_ANOMALY   = 130.8782

EPHEMERIS_TYPE = 0
CLASSIFICATION_TYPE = U
NORAD_CAT_ID   = 67497
ELEMENT_SET_NO = 999
REV_AT_EPOCH   = 453
BSTAR          = -.29138E-1
MEAN_MOTION_DOT = -.1894866E-1
MEAN_MOTION_DDOT = 0

CCSDS_OMM_VERS = 2.0
CREATION_DATE  = 
ORIGINATOR     = 

OBJECT_NAME    = STARLINK-36081
OBJECT_ID      = 2026-012F
CENTER_NAME    = EARTH
REF_FRAME      = TEME
TIME_SYSTEM    = UTC
MEAN_ELEMENT_THEORY = SGP/SGP4

EPOCH          = 2026-02-09T12:00:01.999296
MEAN_MOTION    = 15.50499486
ECCENTRICITY   = .0001071
INCLINATION    = 42.9994
RA_OF_ASC_NODE = 115.1759
ARG_OF_PERICENTER = 285.3317
MEAN_ANOMALY   = 37.4910

EPHEMERIS_TYPE = 0
CLASSIFICATION_TYPE = U
NORAD_CAT_ID   = 67498
ELEMENT_SET_NO = 999
REV_AT_EPOCH   = 448
BSTAR          = .15142E-2
MEAN_MOTION_DOT = .89254E-3
MEAN_MOTION_DDOT = 0

CCSDS_OMM_VERS = 2.0
CREATION_DATE  = 
ORIGINATOR     = 

OBJECT_NAME    = STARLINK-36558
OBJECT_ID      = 2026-012G
CENTER_NAME    = EARTH
REF_FRAME      = TEME
TIME_SYSTEM    = UTC
MEAN_ELEMENT_THEORY = SGP/SGP4

EPOCH          = 2026-02-09T12:00:01.999296
MEAN_MOTION    = 15.50477575
ECCENTRICITY   = .0001753
INCLINATION    = 42.9996
RA_OF_ASC_NODE = 115.1693
ARG_OF_PERICENTER = 270.0332
MEAN_ANOMALY   = 55.2405

EPHEMERIS_TYPE = 0
CLASSIFICATION_TYPE = U
NORAD_CAT_ID   = 67499
ELEMENT_SET_NO = 999
REV_AT_EPOCH   = 453
BSTAR          = .14067E-2
MEAN_MOTION_DOT = .82759E-3
MEAN_MOTION_DDOT = 0

CCSDS_OMM_VERS = 2.0
CREATION_DATE  = 
ORIGINATOR     = 

OBJECT_NAME    = STARLINK-36557
OBJECT_ID      = 2026-012H
CENTER_NAME    = EARTH
REF_FRAME      = TEME
TIME_SYSTEM    = UTC
MEAN_ELEMENT_THEORY = SGP/SGP4

EPOCH          = 2026-02-09T12:00:01.999296
MEAN_MOTION    = 15.60189289
ECCENTRICITY   = .000111
INCLINATION    = 42.9993
RA_OF_ASC_NODE = 114.7365
ARG_OF_PERICENTER = 292.8194
MEAN_ANOMALY   = 207.2966

EPHEMERIS_TYPE = 0
CLASSIFICATION_TYPE = U
NORAD_CAT_ID   = 67500
ELEMENT_SET_NO = 999
REV_AT_EPOCH   = 453
BSTAR          = -.25845E-1
MEAN_MOTION_DOT = -.1910216E-1
MEAN_MOTION_DDOT = 0

CCSDS_OMM_VERS = 2.0
CREATION_DATE  = 
ORIGINATOR     = 

OBJECT_NAME    = STARLINK-36433
OBJECT_ID      = 2026-012J
CENTER_NAME    = EARTH
REF_FRAME      = TEME
TIME_SYSTEM    = UTC
MEAN_ELEMENT_THEORY = SGP/SGP4

EPOCH          = 2026-02-09T12:00:01.999296
MEAN_MOTION    = 15.60557664
ECCENTRICITY   = .0001026
INCLINATION    = 42.9993
RA_OF_ASC_NODE = 114.7090
ARG_OF_PERICENTER = 292.9387
MEAN_ANOMALY   = 218.1361

EPHEMERIS_TYPE = 0
CLASSIFICATION_TYPE = U
NORAD_CAT_ID   = 67501
ELEMENT_SET_NO = 999
REV_AT_EPOCH   = 453
BSTAR          = -.25589E-1
MEAN_MOTION_DOT = -.1917526E-1
MEAN_MOTION_DDOT = 0

CCSDS_OMM_VERS = 2.0
CREATION_DATE  = 
ORIGINATOR     = 

OBJECT_NAME    = STARLINK-36554
OBJECT_ID      = 2026-012K
CENTER_NAME    = EARTH
REF_FRAME      = TEME
TIME_SYSTEM    = UTC
MEAN_ELEMENT_THEORY = SGP/SGP4

EPOCH          = 2026-02-09T12:00:01.999296
MEAN_MOTION    = 15.55807037
ECCENTRICITY   = .00013
INCLINATION    = 42.9990
RA_OF_ASC_NODE = 114.9409
ARG_OF_PERICENTER = 283.3265
MEAN_ANOMALY   = 134.3545

EPHEMERIS_TYPE = 0
CLASSIFICATION_TYPE = U
NORAD_CAT_ID   = 67502
ELEMENT_SET_NO = 999
REV_AT_EPOCH   = 448
BSTAR          = -.30392E-1
MEAN_MOTION_DOT = -.1902137E-1
MEAN_MOTION_DDOT = 0

CCSDS_OMM_VERS = 2.0
CREATION_DATE  = 
ORIGINATOR     = 

OBJECT_NAME    = STARLINK-36552
OBJECT_ID      = 2026-012L
CENTER_NAME    = EARTH
REF_FRAME      = TEME
TIME_SYSTEM    = UTC
MEAN_ELEMENT_THEORY = SGP/SGP4

EPOCH          = 2026-02-09T12:00:01.999296
MEAN_MOTION    = 15.61561460
ECCENTRICITY   = .0001014
INCLINATION    = 42.9995
RA_OF_ASC_NODE = 114.6412
ARG_OF_PERICENTER = 292.8607
MEAN_ANOMALY   = 245.4300

EPHEMERIS_TYPE = 0
CLASSIFICATION_TYPE = U
NORAD_CAT_ID   = 67503
ELEMENT_SET_NO = 999
REV_AT_EPOCH   = 453
BSTAR          = -.24212E-1
MEAN_MOTION_DOT = -.1890366E-1
MEAN_MOTION_DDOT = 0

CCSDS_OMM_VERS = 2.0
CREATION_DATE  = 
ORIGINATOR     = 

OBJECT_NAME    = STARLINK-36512
OBJECT_ID      = 2026-012M
CENTER_NAME    = EARTH
REF_FRAME      = TEME
TIME_SYSTEM    = UTC
MEAN_ELEMENT_THEORY = SGP/SGP4

EPOCH          = 2026-02-09T12:00:01.999296
MEAN_MOTION    = 15.59575033
ECCENTRICITY   = .00011
INCLINATION    = 42.9996
RA_OF_ASC_NODE = 114.7195
ARG_OF_PERICENTER = 289.1013
MEAN_ANOMALY   = 217.5159

EPHEMERIS_TYPE = 0
CLASSIFICATION_TYPE = U
NORAD_CAT_ID   = 67504
ELEMENT_SET_NO = 999
REV_AT_EPOCH   = 453
BSTAR          = -.26633E-1
MEAN_MOTION_DOT = -.1920849E-1
MEAN_MOTION_DDOT = 0

