STARLINK-36551          
1 67493U 26012A   26040.50002314 -.01898745  00000+0 -28155-1 0  9992
2 67493  42.9990 114.9286 0001281 281.9390 141.7546 15.57779522  4539
STARLINK-36396          
1 67494U 26012B   26040.50002314 -.00068101  00000+0 -11650-2 0  9990
2 67494  43.0003 115.6870 0001260 343.0479 133.5214 15.50582515  4537
STARLINK-36550          
1 67495U 26012C   26040.50002314  .00089913  00000+0  15264-2 0  9998
2 67495  42.9994 115.1805 0001035 267.7962  53.4554 15.50476736  4531
STARLINK-36534          
1 67496U 26012D   26040.50002314 -.01906682  00000+0 -29242-1 0  9993
2 67496  42.9992 114.9360 0001281 280.4661 139.8666 15.56905172  4488
STARLINK-36555          
1 67497U 26012E   26040.50002314 -.01894866  00000+0 -29138-1 0  9998
2 67497  42.9991 114.9519 0001437 282.9774 130.8782 15.56811064  4531
STARLINK-36081          
1 67498U 26012F   26040.50002314  .00089254  00000+0  15142-2 0  9994
2 67498  42.9994 115.1759 0001071 285.3317  37.4910 15.50499486  4481
STARLINK-36558          
1 67499U 26012G   26040.50002314  .00082759  00000+0  14067-2 0  9993
2 67499  42.9996 115.1693 0001753 270.0332  55.2405 15.50477575  4534
STARLINK-36557          
1 67500U 26012H   26040.50002314 -.01910216  00000+0 -25845-1 0  9992
2 67500  42.9993 114.7365 0001110 292.8194 207.2966 15.60189289  4534
STARLINK-36433          
1 67501U 26012J   26040.50002314 -.01917526  00000+0 -25589-1 0  9999
2 67501  42.9993 114.7090 0001026 292.9387 218.1361 15.60557664  4537
STARLINK-36554          
1 67502U 26012K   26040.50002314 -.01902137  00000+0 -30392-1 0  9990
2 67502  42.9990 114.9409 0001300 283.3265 134.3545 15.55807037  4488
STARLINK-36552          
1 67503U 26012L   26040.50002314 -.01890366  00000+0 -24212-1 0  9995
2 67503  42.9995 114.6412 0001014 292.8607 245.4300 15.61561460  4535
STARLINK-36512          
1 67504U 26012M   26040.50002314 -.01920849  00000+0 -26633-1 0  9995
2 67504  42.9996 114.7195 0001100 289.1013 217.5159 15.59575033  4532
